[
    {
        "Altitude(m)": 705123.2853838595,
        "Argument of Periapsis(deg)": 0.004556048474650827,
        "Eccentricity": 0.0,
        "Inclination(deg)": 45.0,
        "Latitude(deg)": 34.87105534565049,
        "Longitude(deg)": -61.41382024296525,
        "Mean Anomaly(deg)": -306.29581334100766,
        "RAAN(deg)": 354.99569922341675,
        "Satellite Name": "Constellation 1 1565",
        "Satellite Number": 1565,
        "Semi-Major Axis(m)": 7083131.272910544,
        "Time(s)": 76
    },
    {
        "Altitude(m)": 705129.2396404647,
        "Argument of Periapsis(deg)": 0.004615996480896233,
        "Eccentricity": 0.0,
        "Inclination(deg)": 45.0,
        "Latitude(deg)": 34.902100121061935,
        "Longitude(deg)": -61.354357552264304,
        "Mean Anomaly(deg)": -306.2351122007578,
        "RAAN(deg)": 354.99564263425117,
        "Satellite Name": "Constellation 1 1565",
        "Satellite Number": 1565,
        "Semi-Major Axis(m)": 7083131.272910544,
        "Time(s)": 77
    },
    {
        "Altitude(m)": 705135.1924762203,
        "Argument of Periapsis(deg)": 0.004675944487141638,
        "Eccentricity": 0.0,
        "Inclination(deg)": 45.0,
        "Latitude(deg)": 34.93311147306795,
        "Longitude(deg)": -61.29484705719459,
        "Mean Anomaly(deg)": -306.17441106050785,
        "RAAN(deg)": 354.9955860450856,
        "Satellite Name": "Constellation 1 1565",
        "Satellite Number": 1565,
        "Semi-Major Axis(m)": 7083131.272910544,
        "Time(s)": 78
    },
    {
        "Altitude(m)": 705141.1438531713,
        "Argument of Periapsis(deg)": 0.004735892493387044,
        "Eccentricity": 0.0,
        "Inclination(deg)": 45.0,
        "Latitude(deg)": 34.964089338763394,
        "Longitude(deg)": -61.23528871810603,
        "Mean Anomaly(deg)": -306.113709920258,
        "RAAN(deg)": 354.99552945592,
        "Satellite Name": "Constellation 1 1565",
        "Satellite Number": 1565,
        "Semi-Major Axis(m)": 7083131.272910544,
        "Time(s)": 79
    },
    {
        "Altitude(m)": 705147.0937333883,
        "Argument of Periapsis(deg)": 0.004795840499632449,
        "Eccentricity": 0.0,
        "Inclination(deg)": 45.0,
        "Latitude(deg)": 34.995033655178986,
        "Longitude(deg)": -61.1756824955473,
        "Mean Anomaly(deg)": -306.05300878000804,
        "RAAN(deg)": 354.9954728667545,
        "Satellite Name": "Constellation 1 1565",
        "Satellite Number": 1565,
        "Semi-Major Axis(m)": 7083131.272910544,
        "Time(s)": 80
    },
    {
        "Altitude(m)": 705153.0420789635,
        "Argument of Periapsis(deg)": 0.004855788505877855,
        "Eccentricity": 0.0,
        "Inclination(deg)": 45.0,
        "Latitude(deg)": 35.025944359281276,
        "Longitude(deg)": -61.11602835026758,
        "Mean Anomaly(deg)": -305.99230763975817,
        "RAAN(deg)": 354.9954162775889,
        "Satellite Name": "Constellation 1 1565",
        "Satellite Number": 1565,
        "Semi-Major Axis(m)": 7083131.272910544,
        "Time(s)": 81
    },
    {
        "Altitude(m)": 705158.9888520169,
        "Argument of Periapsis(deg)": 0.00491573651212326,
        "Eccentricity": 0.0,
        "Inclination(deg)": 45.0,
        "Latitude(deg)": 35.05682138797294,
        "Longitude(deg)": -61.0563264113138,
        "Mean Anomaly(deg)": -305.93160649950823,
        "RAAN(deg)": 354.9953596884233,
        "Satellite Name": "Constellation 1 1565",
        "Satellite Number": 1565,
        "Semi-Major Axis(m)": 7083131.272910544,
        "Time(s)": 82
    },
    {
        "Altitude(m)": 705164.9340146886,
        "Argument of Periapsis(deg)": 0.004975684518368666,
        "Eccentricity": 0.0,
        "Inclination(deg)": 45.0,
        "Latitude(deg)": 35.087664678093205,
        "Longitude(deg)": -60.996576303645554,
        "Mean Anomaly(deg)": -305.87090535925836,
        "RAAN(deg)": 354.99530309925774,
        "Satellite Name": "Constellation 1 1565",
        "Satellite Number": 1565,
        "Semi-Major Axis(m)": 7083131.272910544,
        "Time(s)": 83
    },
    {
        "Altitude(m)": 705170.8775291427,
        "Argument of Periapsis(deg)": 0.005035632524614072,
        "Eccentricity": 0.0,
        "Inclination(deg)": 45.0,
        "Latitude(deg)": 35.1184741664175,
        "Longitude(deg)": -60.93677815671647,
        "Mean Anomaly(deg)": -305.81020421900854,
        "RAAN(deg)": 354.99524651009216,
        "Satellite Name": "Constellation 1 1565",
        "Satellite Number": 1565,
        "Semi-Major Axis(m)": 7083131.272910544,
        "Time(s)": 84
    },
    {
        "Altitude(m)": 705176.8193575725,
        "Argument of Periapsis(deg)": 0.0050955805308594785,
        "Eccentricity": 0.0,
        "Inclination(deg)": 45.0,
        "Latitude(deg)": 35.14924978965809,
        "Longitude(deg)": -60.876931932088375,
        "Mean Anomaly(deg)": -305.7495030787586,
        "RAAN(deg)": 354.99518992092663,
        "Satellite Name": "Constellation 1 1565",
        "Satellite Number": 1565,
        "Semi-Major Axis(m)": 7083131.272910544,
        "Time(s)": 85
    },
    {
        "Altitude(m)": 705182.7594621833,
        "Argument of Periapsis(deg)": 0.005155528537104883,
        "Eccentricity": 0.0,
        "Inclination(deg)": 45.0,
        "Latitude(deg)": 35.17999148446394,
        "Longitude(deg)": -60.81703759152966,
        "Mean Anomaly(deg)": -305.68880193850873,
        "RAAN(deg)": 354.995133331761,
        "Satellite Name": "Constellation 1 1565",
        "Satellite Number": 1565,
        "Semi-Major Axis(m)": 7083131.272910544,
        "Time(s)": 86
    },
    {
        "Altitude(m)": 705188.6978052177,
        "Argument of Periapsis(deg)": 0.0052154765433502885,
        "Eccentricity": 0.0,
        "Inclination(deg)": 45.0,
        "Latitude(deg)": 35.210699187421206,
        "Longitude(deg)": -60.7570950970162,
        "Mean Anomaly(deg)": -305.6281007982588,
        "RAAN(deg)": 354.9950767425955,
        "Satellite Name": "Constellation 1 1565",
        "Satellite Number": 1565,
        "Semi-Major Axis(m)": 7083131.272910544,
        "Time(s)": 87
    },
    {
        "Altitude(m)": 705194.6343489428,
        "Argument of Periapsis(deg)": 0.005275424549595694,
        "Eccentricity": 0.0,
        "Inclination(deg)": 45.0,
        "Latitude(deg)": 35.24137283505315,
        "Longitude(deg)": -60.69710441073268,
        "Mean Anomaly(deg)": -305.5673996580089,
        "RAAN(deg)": 354.9950201534299,
        "Satellite Name": "Constellation 1 1565",
        "Satellite Number": 1565,
        "Semi-Major Axis(m)": 7083131.272910544,
        "Time(s)": 88
    },
    {
        "Altitude(m)": 705200.5690556397,
        "Argument of Periapsis(deg)": 0.0053353725558411,
        "Eccentricity": 0.0,
        "Inclination(deg)": 45.0,
        "Latitude(deg)": 35.27201236382032,
        "Longitude(deg)": -60.63706566317083,
        "Mean Anomaly(deg)": -305.506698517759,
        "RAAN(deg)": 354.9949635642643,
        "Satellite Name": "Constellation 1 1565",
        "Satellite Number": 1565,
        "Semi-Major Axis(m)": 7083131.272910544,
        "Time(s)": 89
    },
    {
        "Altitude(m)": 705206.5018876267,
        "Argument of Periapsis(deg)": 0.005395320562086505,
        "Eccentricity": 0.0,
        "Inclination(deg)": 45.0,
        "Latitude(deg)": 35.30261771012135,
        "Longitude(deg)": -60.57697848074291,
        "Mean Anomaly(deg)": -305.4459973775091,
        "RAAN(deg)": 354.9949069750988,
        "Satellite Name": "Constellation 1 1565",
        "Satellite Number": 1565,
        "Semi-Major Axis(m)": 7083131.272910544,
        "Time(s)": 90
    },
    {
        "Altitude(m)": 705212.43280724,
        "Argument of Periapsis(deg)": 0.00545526856833191,
        "Eccentricity": 0.0,
        "Inclination(deg)": 45.0,
        "Latitude(deg)": 35.333188810292256,
        "Longitude(deg)": -60.51684299436447,
        "Mean Anomaly(deg)": -305.3852962372592,
        "RAAN(deg)": 354.99485038593315,
        "Satellite Name": "Constellation 1 1565",
        "Satellite Number": 1565,
        "Semi-Major Axis(m)": 7083131.272910544,
        "Time(s)": 91
    },
    {
        "Altitude(m)": 705218.3617768431,
        "Argument of Periapsis(deg)": 0.005515216574577317,
        "Eccentricity": 0.0,
        "Inclination(deg)": 45.0,
        "Latitude(deg)": 35.36372560060712,
        "Longitude(deg)": -60.456659167067976,
        "Mean Anomaly(deg)": -305.32459509700925,
        "RAAN(deg)": 354.9947937967676,
        "Satellite Name": "Constellation 1 1565",
        "Satellite Number": 1565,
        "Semi-Major Axis(m)": 7083131.272910544,
        "Time(s)": 92
    },
    {
        "Altitude(m)": 705224.2887588271,
        "Argument of Periapsis(deg)": 0.005575164580822722,
        "Eccentricity": 0.0,
        "Inclination(deg)": 45.0,
        "Latitude(deg)": 35.394228017278266,
        "Longitude(deg)": -60.396426962101025,
        "Mean Anomaly(deg)": -305.2638939567594,
        "RAAN(deg)": 354.99473720760204,
        "Satellite Name": "Constellation 1 1565",
        "Satellite Number": 1565,
        "Semi-Major Axis(m)": 7083131.272910544,
        "Time(s)": 93
    },
    {
        "Altitude(m)": 705230.213715603,
        "Argument of Periapsis(deg)": 0.005635112587068129,
        "Eccentricity": 0.0,
        "Inclination(deg)": 45.0,
        "Latitude(deg)": 35.42469599645646,
        "Longitude(deg)": -60.33614634292758,
        "Mean Anomaly(deg)": -305.2031928165095,
        "RAAN(deg)": 354.99468061843646,
        "Satellite Name": "Constellation 1 1565",
        "Satellite Number": 1565,
        "Semi-Major Axis(m)": 7083131.272910544,
        "Time(s)": 94
    }
]